SBSS (USA 216)          
1 37168U 10048A   26068.88624904  .00004946  00000+0  24191-3 0  9993
2 37168  97.7474 312.3885 0082264 184.8326 306.5835 15.15724210837421
STARLINK-31279          
1 59086U 24041N   26068.40296014 -.00000476  00000+0 -77806-5 0  9998
2 59086  43.0036 312.6672 0001274 267.9500  92.1205 15.27575078114277
